[{"OBJECT_NAME":"ONEWEB-0432","OBJECT_ID":"2021-132AK","EPOCH":"2026-03-09T19:26:56.167584","MEAN_MOTION":13.18645009,"ECCENTRICITY":0.00022838,"INCLINATION":87.9252,"RA_OF_ASC_NODE":355.1664,"ARG_OF_PERICENTER":62.7951,"MEAN_ANOMALY":297.3413,"EPHEMERIS_TYPE":0,"CLASSIFICATION_TYPE":"U","NORAD_CAT_ID":50502,"ELEMENT_SET_NO":999,"REV_AT_EPOCH":20848,"BSTAR":0.00016431965,"MEAN_MOTION_DOT":7.8e-7,"MEAN_MOTION_DDOT":0},{"OBJECT_NAME":"SL-14 DEB","OBJECT_ID":"1991-056P","EPOCH":"2026-03-09T18:19:07.911264","MEAN_MOTION":13.39587361,"ECCENTRICITY":0.01218597,"INCLINATION":82.5429,"RA_OF_ASC_NODE":182.2354,"ARG_OF_PERICENTER":135.4895,"MEAN_ANOMALY":225.6109,"EPHEMERIS_TYPE":0,"CLASSIFICATION_TYPE":"U","NORAD_CAT_ID":45277,"ELEMENT_SET_NO":999,"REV_AT_EPOCH":29375,"BSTAR":0.010407537,"MEAN_MOTION_DOT":5.889e-5,"MEAN_MOTION_DDOT":0}]
